YOTSUBA-KULOVER         
1 65941U 98067XN  26070.15958449  .00251035  00000+0  12153-2 0  9994
2 65941  51.6213  49.6653 0005363  77.4147 282.7454 15.81236605 23739
E-KAGAKU-1              
1 65943U 98067XQ  26070.22759112  .00242861  00000+0  11956-2 0  9997
2 65943  51.6235  49.3873 0005836  84.4935 275.6732 15.80890541 23749
HRC MONOBLOCK CAMERA    
1 66052U 98067XR  26070.23553356  .00059053  00000+0  65425-3 0  9992
2 66052  51.6284  57.7302 0003689  99.5836 260.5575 15.62390201 22639
HTV-X1                  
1 66174U 25241A   26070.19118651  .00009215  00000+0  17770-3 0  9996
2 66174  51.6325  64.9326 0007932 179.9008 180.1983 15.48575655554479
SZ-21 MODULE            
1 66515U 25246C   26069.39180921  .00046134  00000+0  39495-3 0  9998
2 66515  41.4733 199.0379 0001321 300.4317  59.6394 15.68612654 18188
SHENZHOU-22             
1 66645U 25272A   26070.31532839  .00028032  00000+0  32988-3 0  9991
2 66645  41.4660 198.2695 0006924 282.6574  77.3490 15.60754326267526
SOYUZ-MS 28             
1 66664U 25275A   26070.19118651  .00009215  00000+0  17770-3 0  9997
2 66664  51.6325  64.9326 0007932 179.9008 180.1983 15.48575655554529
DUPLEX                  
1 66906U 98067XS  26070.19149321  .00040148  00000+0  56317-3 0  9993
2 66906  51.6293  61.9382 0002543 119.4650 240.6595 15.56334996 15361
ISS OBJECT XT           
1 66907U 98067XT  26070.23829972  .00178159  00000+0  14361-2 0  9992
2 66907  51.6251  57.7346 0004745  87.9438 272.2103 15.69794721 15421
ISS OBJECT XU           
1 66908U 98067XU  26070.17272062  .00180739  00000+0  14503-2 0  9993
2 66908  51.6261  58.0443 0004897  89.2541 270.9017 15.69895705 15415
SILVERSAT               
1 66909U 98067XV  26070.23470511  .00236525  00000+0  16574-2 0  9995
2 66909  51.6250  56.9557 0005466  87.1357 273.0267 15.72937624 15436
ISS OBJECT XW           
1 66910U 98067XW  26070.23384304  .00158614  00000+0  13203-2 0  9999
2 66910  51.6252  57.6975 0005315  95.4804 264.6799 15.69081269 15420
